ONEWEB-0032             
1 45141U 20008L   23299.83564916 -.00000661  00000+0 -19292-2 0  9991
2 45141  87.8915 227.8107 0001915  69.7608 290.3725 13.10372039182002
ONEWEB-0033             
1 45142U 20008M   23299.88602785  .00000396  00000+0  10990-2 0  9993
2 45142  87.8912 227.8081 0001602  73.1541 286.9762 13.10371043181925
ONEWEB-0035             
1 45143U 20008N   23299.84214794 -.00000516  00000+0 -15142-2 0  9999
2 45143  87.8914 227.7901 0001763  72.2717 287.8602 13.10371623181647
ONEWEB-0036             
1 45144U 20008P   23299.83240679 -.00000642  00000+0 -18767-2 0  9996
2 45144  87.8917 227.7537 0002030  76.4692 283.6661 13.10374698182074
ONEWEB-0038             
1 45145U 20008Q   23299.84117207  .00000344  00000+0  93417-3 0  9991
2 45145  87.9006 212.6409 0002427  57.3376 302.7986 13.11413954183932
ONEWEB-0039             
1 45146U 20008R   23300.19470867  .00000112  00000+0  28544-3 0  9999
2 45146  87.8906 227.7002 0002408  78.9518 281.1880 13.10370122182696
ONEWEB-0040             
1 45147U 20008S   23299.88278793  .00000480  00000+0  13380-2 0  9996
2 45147  87.8913 227.7485 0001935  73.1315 287.0024 13.10372353181575
ONEWEB-0041             
1 45148U 20008T   23299.75597570  .00000107  00000+0  14899-3 0  9993
2 45148  87.9462 204.1993 0019182 113.3156 247.0014 13.48421211188078
